{
    "links": {
        "self": "http://www.neowsapp.com/rest/v1/neo/3362877?api_key=iIulBulltgU6a56xZRHN4H3l9WmuAYTsLGpBGhQ2"
    },
    "id": "3362877",
    "neo_reference_id": "3362877",
    "name": "(2006 WJ130)",
    "designation": "2006 WJ130",
    "nasa_jpl_url": "http://ssd.jpl.nasa.gov/sbdb.cgi?sstr=3362877",
    "absolute_magnitude_h": 24.1,
    "estimated_diameter": {
        "kilometers": {
            "estimated_diameter_min": 0.040230458,
            "estimated_diameter_max": 0.0899580388
        },
        "meters": {
            "estimated_diameter_min": 40.2304579834,
            "estimated_diameter_max": 89.9580388169
        },
        "miles": {
            "estimated_diameter_min": 0.0249980399,
            "estimated_diameter_max": 0.0558973165
        },
        "feet": {
            "estimated_diameter_min": 131.9896957704,
            "estimated_diameter_max": 295.1379320721
        }
    },
    "is_potentially_hazardous_asteroid": false,
    "close_approach_data": [
        {
            "close_approach_date": "2000-06-12",
            "close_approach_date_full": "2000-Jun-12 05:29",
            "epoch_date_close_approach": 960787740000,
            "relative_velocity": {
                "kilometers_per_second": "13.4049191841",
                "kilometers_per_hour": "48257.7090627064",
                "miles_per_hour": "29985.46372288"
            },
            "miss_distance": {
                "astronomical": "0.2760720649",
                "lunar": "107.3920332461",
                "kilometers": "41299792.875541763",
                "miles": "25662501.3068638094"
            },
            "orbiting_body": "Earth"
        },
        {
            "close_approach_date": "2000-11-21",
            "close_approach_date_full": "2000-Nov-21 01:18",
            "epoch_date_close_approach": 974769480000,
            "relative_velocity": {
                "kilometers_per_second": "12.1363668741",
                "kilometers_per_hour": "43690.9207468651",
                "miles_per_hour": "27147.8390607396"
            },
            "miss_distance": {
                "astronomical": "0.2185155502",
                "lunar": "85.0025490278",
                "kilometers": "32689460.871798074",
                "miles": "20312289.0923744612"
            },
            "orbiting_body": "Earth"
        },
        {
            "close_approach_date": "2006-06-06",
            "close_approach_date_full": "2006-Jun-06 03:23",
            "epoch_date_close_approach": 1149564180000,
            "relative_velocity": {
                "kilometers_per_second": "11.7911976922",
                "kilometers_per_hour": "42448.3116920867",
                "miles_per_hour": "26375.7301177857"
            },
            "miss_distance": {
                "astronomical": "0.1954371362",
                "lunar": "76.0250459818",
                "kilometers": "29236979.294419894",
                "miles": "18167016.5178027772"
            },
            "orbiting_body": "Earth"
        },
        {
            "close_approach_date": "2006-11-25",
            "close_approach_date_full": "2006-Nov-25 20:04",
            "epoch_date_close_approach": 1164485040000,
            "relative_velocity": {
                "kilometers_per_second": "12.2216299534",
                "kilometers_per_hour": "43997.8678322839",
                "miles_per_hour": "27338.5640427878"
            },
            "miss_distance": {
                "astronomical": "0.0361709639",
                "lunar": "14.0705049571",
                "kilometers": "5411099.155286893",
                "miles": "3362301.1031214034"
            },
            "orbiting_body": "Earth"
        },
        {
            "close_approach_date": "2012-12-01",
            "close_approach_date_full": "2012-Dec-01 04:28",
            "epoch_date_close_approach": 1354336080000,
            "relative_velocity": {
                "kilometers_per_second": "14.863820857",
                "kilometers_per_hour": "53509.7550852684",
                "miles_per_hour": "33248.8808750658"
            },
            "miss_distance": {
                "astronomical": "0.2018458318",
                "lunar": "78.5180285702",
                "kilometers": "30195706.505658266",
                "miles": "18762741.9827094308"
            },
            "orbiting_body": "Earth"
        }
    ],
    "orbital_data": {
        "orbit_id": "8",
        "orbit_determination_date": "2017-04-06 09:07:27",
        "first_observation_date": "2006-11-28",
        "last_observation_date": "2006-12-01",
        "data_arc_in_days": 3,
        "observations_used": 18,
        "orbit_uncertainty": "8",
        "minimum_orbit_intersection": ".0357168",
        "jupiter_tisserand_invariant": "5.446",
        "epoch_osculation": "2454068.5",
        "eccentricity": ".1349699407985989",
        "semi_major_axis": "1.133408477600586",
        "inclination": "22.39602428019562",
        "ascending_node_longitude": "244.7986859440831",
        "orbital_period": "440.7355800173799",
        "perihelion_distance": ".9804324024782048",
        "perihelion_argument": "130.0626984327572",
        "aphelion_distance": "1.286384552722967",
        "perihelion_time": "2454019.010765851468",
        "mean_anomaly": "40.42361248159035",
        "mean_motion": ".8168162869578259",
        "equinox": "J2000",
        "orbit_class": {
            "orbit_class_type": "APO",
            "orbit_class_description": "Near-Earth asteroid orbits which cross the Earth’s orbit similar to that of 1862 Apollo",
            "orbit_class_range": "a (semi-major axis) > 1.0 AU; q (perihelion) < 1.017 AU"
        }
    },
    "is_sentry_object": false
}